start=new Date('2021-10-11T00:00:00.000Z').valueOf();
sats=[{"LAUNCH_DATE":"2021-05-04","GP_ID":"186840175","ARG_OF_PERICENTER":"98.8627","TIME_SYSTEM":"UTC","OBJECT_NAME":"STARLINK-2578","TLE_LINE1":"1 48362U 21038K   21283.67222601  .00000719  00000-0  69847-4 0  9994","OBJECT_ID":"2021-038K","PERIOD":"95.695","MEAN_ANOMALY":"261.2510","APOAPSIS":"553.103","BSTAR":"0.00006984700000","MEAN_ELEMENT_THEORY":"SGP4","NORAD_CAT_ID":"48362","PERIAPSIS":"551.283","MEAN_MOTION_DOT":"0.00000719","SITE":"AFETR","SEMIMAJOR_AXIS":"6930.328","RA_OF_ASC_NODE":"33.4552","MEAN_MOTION_DDOT":"0.0000000000000","ELEMENT_SET_NO":"999","REF_FRAME":"TEME","MEAN_MOTION":"15.04776836","CENTER_NAME":"EARTH","OBJECT_TYPE":"PAYLOAD","TLE_LINE2":"2 48362  53.0560  33.4552 0001313  98.8627 261.2510 15.04776836 24217","REV_AT_EPOCH":"2421","FILE":"3155694","DECAY_DATE":null,"COUNTRY_CODE":"US","INCLINATION":"53.0560","CLASSIFICATION_TYPE":"U","EPHEMERIS_TYPE":"0","ECCENTRICITY":"0.00013130","RCS_SIZE":"LARGE","EPOCH":"2021-10-10T16:08:00.327264"},{"MEAN_MOTION":"15.06399906","OBJECT_TYPE":"PAYLOAD","CENTER_NAME":"EARTH","MEAN_MOTION_DDOT":"0.0000000000000","ELEMENT_SET_NO":"999","REF_FRAME":"TEME","REV_AT_EPOCH":"2427","FILE":"3155694","DECAY_DATE":null,"TLE_LINE2":"2 48363  53.0566  28.8578 0001274 100.6508 259.4624 15.06399906 24278","CLASSIFICATION_TYPE":"U","INCLINATION":"53.0566","COUNTRY_CODE":"US","RCS_SIZE":"LARGE","EPOCH":"2021-10-10T15:30:39.957120","EPHEMERIS_TYPE":"0","ECCENTRICITY":"0.00012740","ARG_OF_PERICENTER":"100.6508","TIME_SYSTEM":"UTC","OBJECT_NAME":"STARLINK-2626","LAUNCH_DATE":"2021-05-04","GP_ID":"186840425","PERIOD":"95.592","MEAN_ANOMALY":"259.4624","OBJECT_ID":"2021-038L","TLE_LINE1":"1 48363U 21038L   21283.64629580  .00001488  00000-0  11875-3 0  9990","NORAD_CAT_ID":"48363","BSTAR":"0.00011875000000","APOAPSIS":"548.096","MEAN_ELEMENT_THEORY":"SGP4","SITE":"AFETR","MEAN_MOTION_DOT":"0.00001488","SEMIMAJOR_AXIS":"6925.349","RA_OF_ASC_NODE":"28.8578","PERIAPSIS":"546.332"},{"OBJECT_NAME":"STARLINK-2611","TIME_SYSTEM":"UTC","ARG_OF_PERICENTER":"106.5857","GP_ID":"186840677","LAUNCH_DATE":"2021-05-04","MEAN_ANOMALY":"253.5248","PERIOD":"95.592","OBJECT_ID":"2021-038M","TLE_LINE1":"1 48364U 21038M   21283.64166899  .00003175  00000-0  23198-3 0  9996","NORAD_CAT_ID":"48364","MEAN_ELEMENT_THEORY":"SGP4","BSTAR":"0.00023198000000","APOAPSIS":"547.957","RA_OF_ASC_NODE":"28.8796","MEAN_MOTION_DOT":"0.00003175","SITE":"AFETR","SEMIMAJOR_AXIS":"6925.358","PERIAPSIS":"546.490","OBJECT_TYPE":"PAYLOAD","CENTER_NAME":"EARTH","MEAN_MOTION":"15.06396787","REF_FRAME":"TEME","ELEMENT_SET_NO":"999","MEAN_MOTION_DDOT":"0.0000000000000","FILE":"3155694","DECAY_DATE":null,"REV_AT_EPOCH":"2427","TLE_LINE2":"2 48364  53.0570  28.8796 0001059 106.5857 253.5248 15.06396787 24270","INCLINATION":"53.0570","CLASSIFICATION_TYPE":"U","COUNTRY_CODE":"US","EPOCH":"2021-10-10T15:24:00.200736","RCS_SIZE":"LARGE","ECCENTRICITY":"0.00010590","EPHEMERIS_TYPE":"0"},{"MEAN_MOTION_DDOT":"0.0000000000000","ELEMENT_SET_NO":"999","REF_FRAME":"TEME","MEAN_MOTION":"15.06399220","CENTER_NAME":"EARTH","OBJECT_TYPE":"PAYLOAD","TLE_LINE2":"2 48365  53.0574  28.9779 0001320 108.8973 251.2159 15.06399220 24273","REV_AT_EPOCH":"2427","DECAY_DATE":null,"FILE":"3155694","COUNTRY_CODE":"US","CLASSIFICATION_TYPE":"U","INCLINATION":"53.0574","ECCENTRICITY":"0.00013200","EPHEMERIS_TYPE":"0","RCS_SIZE":"LARGE","EPOCH":"2021-10-10T14:53:32.059680","LAUNCH_DATE":"2021-05-04","GP_ID":"186841429","ARG_OF_PERICENTER":"108.8973","TIME_SYSTEM":"UTC","OBJECT_NAME":"STARLINK-2608","TLE_LINE1":"1 48365U 21038N   21283.62050995  .00000556  00000-0  56213-4 0  9999","OBJECT_ID":"2021-038N","MEAN_ANOMALY":"251.2159","PERIOD":"95.592","APOAPSIS":"548.130","BSTAR":"0.00005621300000","MEAN_ELEMENT_THEORY":"SGP4","NORAD_CAT_ID":"48365","PERIAPSIS":"546.302","MEAN_MOTION_DOT":"0.00000556","SITE":"AFETR","SEMIMAJOR_AXIS":"6925.351","RA_OF_ASC_NODE":"28.9779"},{"PERIAPSIS":"546.200","SITE":"AFETR","SEMIMAJOR_AXIS":"6925.385","MEAN_MOTION_DOT":"-0.00000096","RA_OF_ASC_NODE":"23.4375","APOAPSIS":"548.301","BSTAR":"0.00001242300000","MEAN_ELEMENT_THEORY":"SGP4","NORAD_CAT_ID":"48366","TLE_LINE1":"1 48366U 21038P   21283.74075648 -.00000096  00000-0  12423-4 0  9990","OBJECT_ID":"2021-038P","MEAN_ANOMALY":"259.4017","PERIOD":"95.593","LAUNCH_DATE":"2021-05-04","GP_ID":"186841428","ARG_OF_PERICENTER":"100.7142","TIME_SYSTEM":"UTC","OBJECT_NAME":"STARLINK-2631","EPHEMERIS_TYPE":"0","ECCENTRICITY":"0.00015170","RCS_SIZE":"LARGE","EPOCH":"2021-10-10T17:46:41.359872","COUNTRY_CODE":"US","INCLINATION":"53.0566","CLASSIFICATION_TYPE":"U","TLE_LINE2":"2 48366  53.0566  23.4375 0001517 100.7142 259.4017 15.06387999 24356","REV_AT_EPOCH":"2435","FILE":"3155694","DECAY_DATE":null,"MEAN_MOTION_DDOT":"0.0000000000000","ELEMENT_SET_NO":"999","REF_FRAME":"TEME","MEAN_MOTION":"15.06387999","OBJECT_TYPE":"PAYLOAD","CENTER_NAME":"EARTH"},{"ELEMENT_SET_NO":"999","MEAN_MOTION_DDOT":"0.0000000000000","REF_FRAME":"TEME","MEAN_MOTION":"15.06406094","CENTER_NAME":"EARTH","OBJECT_TYPE":"PAYLOAD","TLE_LINE2":"2 48367  53.0580  23.7560 0001627 107.8075 252.3091 15.06406094 24348","REV_AT_EPOCH":"2434","DECAY_DATE":null,"FILE":"3155694","COUNTRY_CODE":"US","INCLINATION":"53.0580","CLASSIFICATION_TYPE":"U","ECCENTRICITY":"0.00016270","EPHEMERIS_TYPE":"0","EPOCH":"2021-10-10T16:05:49.830432","RCS_SIZE":"LARGE","LAUNCH_DATE":"2021-05-04","GP_ID":"186840427","TIME_SYSTEM":"UTC","ARG_OF_PERICENTER":"107.8075","OBJECT_NAME":"STARLINK-2643","TLE_LINE1":"1 48367U 21038Q   21283.67071563  .00001920  00000-0  14772-3 0  9999","OBJECT_ID":"2021-038Q","MEAN_ANOMALY":"252.3091","PERIOD":"95.592","APOAPSIS":"548.322","BSTAR":"0.00014772000000","MEAN_ELEMENT_THEORY":"SGP4","NORAD_CAT_ID":"48367","PERIAPSIS":"546.068","SITE":"AFETR","SEMIMAJOR_AXIS":"6925.330","MEAN_MOTION_DOT":"0.00001920","RA_OF_ASC_NODE":"23.7560"},{"COUNTRY_CODE":"US","INCLINATION":"53.0561","CLASSIFICATION_TYPE":"U","EPHEMERIS_TYPE":"0","ECCENTRICITY":"0.00010880","EPOCH":"2021-10-10T16:31:00.994944","RCS_SIZE":"LARGE","REF_FRAME":"TEME","ELEMENT_SET_NO":"999","MEAN_MOTION_DDOT":"0.0000000000000","CENTER_NAME":"EARTH","OBJECT_TYPE":"PAYLOAD","MEAN_MOTION":"15.06393054","TLE_LINE2":"2 48368  53.0561  23.6713 0001088 103.4263 256.6848 15.06393054 24358","FILE":"3155694","DECAY_DATE":null,"REV_AT_EPOCH":"2435","MEAN_ELEMENT_THEORY":"SGP4","APOAPSIS":"547.988","BSTAR":"0.00002772300000","NORAD_CAT_ID":"48368","PERIAPSIS":"546.481","RA_OF_ASC_NODE":"23.6713","SITE":"AFETR","MEAN_MOTION_DOT":"0.00000132","SEMIMAJOR_AXIS":"6925.370","GP_ID":"186841177","LAUNCH_DATE":"2021-05-04","OBJECT_NAME":"STARLINK-2623","TIME_SYSTEM":"UTC","ARG_OF_PERICENTER":"103.4263","OBJECT_ID":"2021-038R","TLE_LINE1":"1 48368U 21038R   21283.68820596  .00000132  00000-0  27723-4 0  9994","MEAN_ANOMALY":"256.6848","PERIOD":"95.593"},{"MEAN_MOTION_DDOT":"0.0000000000000","ELEMENT_SET_NO":"999","REF_FRAME":"TEME","MEAN_MOTION":"15.06404242","OBJECT_TYPE":"PAYLOAD","CENTER_NAME":"EARTH","TLE_LINE2":"2 48369  53.0550  23.7772 0001229  94.9971 265.1158 15.06404242 24340","REV_AT_EPOCH":"2434","DECAY_DATE":null,"FILE":"3155694","COUNTRY_CODE":"US","CLASSIFICATION_TYPE":"U","INCLINATION":"53.0550","EPHEMERIS_TYPE":"0","ECCENTRICITY":"0.00012290","RCS_SIZE":"LARGE","EPOCH":"2021-10-10T16:00:31.351392","LAUNCH_DATE":"2021-05-04","GP_ID":"186841644","ARG_OF_PERICENTER":"94.9971","TIME_SYSTEM":"UTC","OBJECT_NAME":"STARLINK-2641","OBJECT_ID":"2021-038S","TLE_LINE1":"1 48369U 21038S   21283.66702953  .00000329  00000-0  41003-4 0  9994","MEAN_ANOMALY":"265.1158","PERIOD":"95.592","BSTAR":"0.00004100300000","APOAPSIS":"548.052","MEAN_ELEMENT_THEORY":"SGP4","NORAD_CAT_ID":"48369","PERIAPSIS":"546.349","SITE":"AFETR","MEAN_MOTION_DOT":"0.00000329","SEMIMAJOR_AXIS":"6925.336","RA_OF_ASC_NODE":"23.7772"},{"MEAN_MOTION":"15.06405833","OBJECT_TYPE":"PAYLOAD","CENTER_NAME":"EARTH","ELEMENT_SET_NO":"999","MEAN_MOTION_DDOT":"0.0000000000000","REF_FRAME":"TEME","REV_AT_EPOCH":"2434","FILE":"3155694","DECAY_DATE":null,"TLE_LINE2":"2 48370  53.0568  23.7858 0001017 124.9248 235.1836 15.06405833 24349","INCLINATION":"53.0568","CLASSIFICATION_TYPE":"U","COUNTRY_CODE":"US","EPOCH":"2021-10-10T15:55:14.621952","RCS_SIZE":"LARGE","EPHEMERIS_TYPE":"0","ECCENTRICITY":"0.00010170","TIME_SYSTEM":"UTC","ARG_OF_PERICENTER":"124.9248","OBJECT_NAME":"STARLINK-2621","LAUNCH_DATE":"2021-05-04","GP_ID":"186841430","PERIOD":"95.592","MEAN_ANOMALY":"235.1836","TLE_LINE1":"1 48370U 21038T   21283.66336368  .00003208  00000-0  23413-3 0  9992","OBJECT_ID":"2021-038T","NORAD_CAT_ID":"48370","BSTAR":"0.00023413000000","APOAPSIS":"547.900","MEAN_ELEMENT_THEORY":"SGP4","SEMIMAJOR_AXIS":"6925.331","SITE":"AFETR","MEAN_MOTION_DOT":"0.00003208","RA_OF_ASC_NODE":"23.7858","PERIAPSIS":"546.491"},{"ECCENTRICITY":"0.00012470","EPHEMERIS_TYPE":"0","RCS_SIZE":"LARGE","EPOCH":"2021-10-10T19:01:00.576192","COUNTRY_CODE":"US","CLASSIFICATION_TYPE":"U","INCLINATION":"53.0573","TLE_LINE2":"2 48371  53.0573  23.2096 0001247 100.4795 259.6334 15.06394960 24360","REV_AT_EPOCH":"2436","DECAY_DATE":null,"FILE":"3155694","MEAN_MOTION_DDOT":"0.0000000000000","ELEMENT_SET_NO":"999","REF_FRAME":"TEME","MEAN_MOTION":"15.06394960","OBJECT_TYPE":"PAYLOAD","CENTER_NAME":"EARTH","PERIAPSIS":"546.365","SITE":"AFETR","SEMIMAJOR_AXIS":"6925.364","MEAN_MOTION_DOT":"0.00000641","RA_OF_ASC_NODE":"23.2096","APOAPSIS":"548.093","BSTAR":"0.00006189300000","MEAN_ELEMENT_THEORY":"SGP4","NORAD_CAT_ID":"48371","TLE_LINE1":"1 48371U 21038U   21283.79236778  .00000641  00000-0  61893-4 0  9994","OBJECT_ID":"2021-038U","PERIOD":"95.592","MEAN_ANOMALY":"259.6334","LAUNCH_DATE":"2021-05-04","GP_ID":"186842091","ARG_OF_PERICENTER":"100.4795","TIME_SYSTEM":"UTC","OBJECT_NAME":"STARLINK-2589"}];
